DELTA 2 R/B(1)          
1 20453U 90008B   26033.41361122  .00061785  00000+0  83464-3 0  9999
2 20453  35.6059  45.4964 0097707 290.5744  68.4531 15.51067649920649
COSMOS 2058             
1 20465U 90010A   26033.42099383  .00003511  00000+0  20830-3 0  9994
2 20465  82.4635  82.1729 0012052  95.1978 265.0628 15.10992436936912
SL-14 R/B               
1 20466U 90010B   26033.20964907  .00000533  00000+0  61654-4 0  9995
2 20466  82.5038 300.7149 0021204  59.0836 301.2460 14.83535368923220
SL-14 R/B               
1 20511U 90018B   26033.32823548  .00000420  00000+0  49738-4 0  9996
2 20511  82.5189 256.1493 0015690 203.9382 156.1105 14.82107780917343
HST                     
1 20580U 90037B   26032.98309778  .00007402  00000+0  24825-3 0  9994
2 20580  28.4672 283.4789 0002010  78.1649 281.9172 15.28901089767840
SL-16 R/B               
1 20625U 90046B   26033.35126374 -.00000137  00000+0 -45811-4 0  9994
2 20625  70.9994  12.1277 0014441 348.6776  11.4020 14.15004961843396
COSMOS 2084             
1 20663U 90055A   26033.45309611  .00002646  00000+0  19655-3 0  9995
2 20663  62.7898  95.7379 0022757 182.8301 177.2674 15.05418039931019
SL-6 R/B(2)             
1 20666U 90055D   26033.38813821  .00002580  00000+0  20262-3 0  9996
2 20666  62.7842  13.8800 0019614 336.6180  23.4025 15.03393347932883
SL-8 R/B                
1 20775U 90078B   26033.14780569  .00014671  00000+0  43446-3 0  9991
2 20775  82.9037 283.2424 0367616 133.0533 230.2103 14.87864158804010
SL-8 R/B                
1 21088U 91006B   26033.45825522  .00000011  00000+0 -40961-5 0  9999
2 21088  82.9426 196.2409 0023409 132.0749 239.9185 13.77491942759226
OKEAN-3                 
1 21397U 91039A   26033.43304818  .00003084  00000+0  21765-3 0  9997
2 21397  82.5177  10.9888 0016231  91.0492 269.2594 15.04518671859733
COSMOS 2151             
1 21422U 91042A   26033.46207635  .00001822  00000+0  14432-3 0  9993
2 21422  82.4977 117.6553 0012820 172.2090 187.9336 14.99963327857912
