CCSDS_OMM_VERS = 2.0
CREATION_DATE  = 
ORIGINATOR     = 

OBJECT_NAME    = DELTA 2 R/B(1)
OBJECT_ID      = 1990-008B
CENTER_NAME    = EARTH
REF_FRAME      = TEME
TIME_SYSTEM    = UTC
MEAN_ELEMENT_THEORY = SGP/SGP4

EPOCH          = 2026-02-02T09:55:36.009408
MEAN_MOTION    = 15.51067649
ECCENTRICITY   = .0097707
INCLINATION    = 35.6059
RA_OF_ASC_NODE = 45.4964
ARG_OF_PERICENTER = 290.5744
MEAN_ANOMALY   = 68.4531

EPHEMERIS_TYPE = 0
CLASSIFICATION_TYPE = U
NORAD_CAT_ID   = 20453
ELEMENT_SET_NO = 999
REV_AT_EPOCH   = 92064
BSTAR          = .83464E-3
MEAN_MOTION_DOT = .61785E-3
MEAN_MOTION_DDOT = 0

CCSDS_OMM_VERS = 2.0
CREATION_DATE  = 
ORIGINATOR     = 

OBJECT_NAME    = COSMOS 2058
OBJECT_ID      = 1990-010A
CENTER_NAME    = EARTH
REF_FRAME      = TEME
TIME_SYSTEM    = UTC
MEAN_ELEMENT_THEORY = SGP/SGP4

EPOCH          = 2026-02-02T10:06:13.866912
MEAN_MOTION    = 15.10992436
ECCENTRICITY   = .0012052
INCLINATION    = 82.4635
RA_OF_ASC_NODE = 82.1729
ARG_OF_PERICENTER = 95.1978
MEAN_ANOMALY   = 265.0628

EPHEMERIS_TYPE = 0
CLASSIFICATION_TYPE = U
NORAD_CAT_ID   = 20465
ELEMENT_SET_NO = 999
REV_AT_EPOCH   = 93691
BSTAR          = .2083E-3
MEAN_MOTION_DOT = .3511E-4
MEAN_MOTION_DDOT = 0

CCSDS_OMM_VERS = 2.0
CREATION_DATE  = 
ORIGINATOR     = 

OBJECT_NAME    = SL-14 R/B
OBJECT_ID      = 1990-010B
CENTER_NAME    = EARTH
REF_FRAME      = TEME
TIME_SYSTEM    = UTC
MEAN_ELEMENT_THEORY = SGP/SGP4

EPOCH          = 2026-02-02T05:01:53.679648
MEAN_MOTION    = 14.83535368
ECCENTRICITY   = .0021204
INCLINATION    = 82.5038
RA_OF_ASC_NODE = 300.7149
ARG_OF_PERICENTER = 59.0836
MEAN_ANOMALY   = 301.2460

EPHEMERIS_TYPE = 0
CLASSIFICATION_TYPE = U
NORAD_CAT_ID   = 20466
ELEMENT_SET_NO = 999
REV_AT_EPOCH   = 92322
BSTAR          = .61654E-4
MEAN_MOTION_DOT = .533E-5
MEAN_MOTION_DDOT = 0

CCSDS_OMM_VERS = 2.0
CREATION_DATE  = 
ORIGINATOR     = 

OBJECT_NAME    = SL-14 R/B
OBJECT_ID      = 1990-018B
CENTER_NAME    = EARTH
REF_FRAME      = TEME
TIME_SYSTEM    = UTC
MEAN_ELEMENT_THEORY = SGP/SGP4

EPOCH          = 2026-02-02T07:52:39.545472
MEAN_MOTION    = 14.82107780
ECCENTRICITY   = .001569
INCLINATION    = 82.5189
RA_OF_ASC_NODE = 256.1493
ARG_OF_PERICENTER = 203.9382
MEAN_ANOMALY   = 156.1105

EPHEMERIS_TYPE = 0
CLASSIFICATION_TYPE = U
NORAD_CAT_ID   = 20511
ELEMENT_SET_NO = 999
REV_AT_EPOCH   = 91734
BSTAR          = .49738E-4
MEAN_MOTION_DOT = .42E-5
MEAN_MOTION_DDOT = 0

CCSDS_OMM_VERS = 2.0
CREATION_DATE  = 
ORIGINATOR     = 

OBJECT_NAME    = HST
OBJECT_ID      = 1990-037B
CENTER_NAME    = EARTH
REF_FRAME      = TEME
TIME_SYSTEM    = UTC
MEAN_ELEMENT_THEORY = SGP/SGP4

EPOCH          = 2026-02-01T23:35:39.648192
MEAN_MOTION    = 15.28901089
ECCENTRICITY   = .00020104
INCLINATION    = 28.4672
RA_OF_ASC_NODE = 283.4789
ARG_OF_PERICENTER = 78.1649
MEAN_ANOMALY   = 281.9172

EPHEMERIS_TYPE = 0
CLASSIFICATION_TYPE = U
NORAD_CAT_ID   = 20580
ELEMENT_SET_NO = 999
REV_AT_EPOCH   = 76784
BSTAR          = .24825135E-3
MEAN_MOTION_DOT = .7402E-4
MEAN_MOTION_DDOT = 0

CCSDS_OMM_VERS = 2.0
CREATION_DATE  = 
ORIGINATOR     = 

OBJECT_NAME    = SL-16 R/B
OBJECT_ID      = 1990-046B
CENTER_NAME    = EARTH
REF_FRAME      = TEME
TIME_SYSTEM    = UTC
MEAN_ELEMENT_THEORY = SGP/SGP4

EPOCH          = 2026-02-02T08:25:49.187136
MEAN_MOTION    = 14.15004961
ECCENTRICITY   = .0014441
INCLINATION    = 70.9994
RA_OF_ASC_NODE = 12.1277
ARG_OF_PERICENTER = 348.6776
MEAN_ANOMALY   = 11.4020

EPHEMERIS_TYPE = 0
CLASSIFICATION_TYPE = U
NORAD_CAT_ID   = 20625
ELEMENT_SET_NO = 999
REV_AT_EPOCH   = 84339
BSTAR          = -.45811E-4
MEAN_MOTION_DOT = -.137E-5
MEAN_MOTION_DDOT = 0

CCSDS_OMM_VERS = 2.0
CREATION_DATE  = 
ORIGINATOR     = 

OBJECT_NAME    = COSMOS 2084
OBJECT_ID      = 1990-055A
CENTER_NAME    = EARTH
REF_FRAME      = TEME
TIME_SYSTEM    = UTC
MEAN_ELEMENT_THEORY = SGP/SGP4

EPOCH          = 2026-02-02T10:52:27.503904
MEAN_MOTION    = 15.05418039
ECCENTRICITY   = .0022757
INCLINATION    = 62.7898
RA_OF_ASC_NODE = 95.7379
ARG_OF_PERICENTER = 182.8301
MEAN_ANOMALY   = 177.2674

EPHEMERIS_TYPE = 0
CLASSIFICATION_TYPE = U
NORAD_CAT_ID   = 20663
ELEMENT_SET_NO = 999
REV_AT_EPOCH   = 93101
BSTAR          = .19655E-3
MEAN_MOTION_DOT = .2646E-4
MEAN_MOTION_DDOT = 0

CCSDS_OMM_VERS = 2.0
CREATION_DATE  = 
ORIGINATOR     = 

OBJECT_NAME    = SL-6 R/B(2)
OBJECT_ID      = 1990-055D
CENTER_NAME    = EARTH
REF_FRAME      = TEME
TIME_SYSTEM    = UTC
MEAN_ELEMENT_THEORY = SGP/SGP4

EPOCH          = 2026-02-02T09:18:55.141344
MEAN_MOTION    = 15.03393347
ECCENTRICITY   = .0019614
INCLINATION    = 62.7842
RA_OF_ASC_NODE = 13.8800
ARG_OF_PERICENTER = 336.6180
MEAN_ANOMALY   = 23.4025

EPHEMERIS_TYPE = 0
CLASSIFICATION_TYPE = U
NORAD_CAT_ID   = 20666
ELEMENT_SET_NO = 999
REV_AT_EPOCH   = 93288
BSTAR          = .20262E-3
MEAN_MOTION_DOT = .258E-4
MEAN_MOTION_DDOT = 0

CCSDS_OMM_VERS = 2.0
CREATION_DATE  = 
ORIGINATOR     = 

OBJECT_NAME    = SL-8 R/B
OBJECT_ID      = 1990-078B
CENTER_NAME    = EARTH
REF_FRAME      = TEME
TIME_SYSTEM    = UTC
MEAN_ELEMENT_THEORY = SGP/SGP4

EPOCH          = 2026-02-02T03:32:50.411616
MEAN_MOTION    = 14.87864158
ECCENTRICITY   = .03676162
INCLINATION    = 82.9037
RA_OF_ASC_NODE = 283.2424
ARG_OF_PERICENTER = 133.0533
MEAN_ANOMALY   = 230.2103

EPHEMERIS_TYPE = 0
CLASSIFICATION_TYPE = U
NORAD_CAT_ID   = 20775
ELEMENT_SET_NO = 999
REV_AT_EPOCH   = 80401
BSTAR          = .4344633E-3
MEAN_MOTION_DOT = .14671E-3
MEAN_MOTION_DDOT = 0

CCSDS_OMM_VERS = 2.0
CREATION_DATE  = 
ORIGINATOR     = 

OBJECT_NAME    = SL-8 R/B
OBJECT_ID      = 1991-006B
CENTER_NAME    = EARTH
REF_FRAME      = TEME
TIME_SYSTEM    = UTC
MEAN_ELEMENT_THEORY = SGP/SGP4

EPOCH          = 2026-02-02T10:59:53.251008
MEAN_MOTION    = 13.77491942
ECCENTRICITY   = .0023409
INCLINATION    = 82.9426
RA_OF_ASC_NODE = 196.2409
ARG_OF_PERICENTER = 132.0749
MEAN_ANOMALY   = 239.9185

EPHEMERIS_TYPE = 0
CLASSIFICATION_TYPE = U
NORAD_CAT_ID   = 21088
ELEMENT_SET_NO = 999
REV_AT_EPOCH   = 75922
BSTAR          = -.40961E-5
MEAN_MOTION_DOT = .11E-6
MEAN_MOTION_DDOT = 0

CCSDS_OMM_VERS = 2.0
CREATION_DATE  = 
ORIGINATOR     = 

OBJECT_NAME    = OKEAN-3
OBJECT_ID      = 1991-039A
CENTER_NAME    = EARTH
REF_FRAME      = TEME
TIME_SYSTEM    = UTC
MEAN_ELEMENT_THEORY = SGP/SGP4

EPOCH          = 2026-02-02T10:23:35.362752
MEAN_MOTION    = 15.04518671
ECCENTRICITY   = .0016231
INCLINATION    = 82.5177
RA_OF_ASC_NODE = 10.9888
ARG_OF_PERICENTER = 91.0492
MEAN_ANOMALY   = 269.2594

EPHEMERIS_TYPE = 0
CLASSIFICATION_TYPE = U
NORAD_CAT_ID   = 21397
ELEMENT_SET_NO = 999
REV_AT_EPOCH   = 85973
BSTAR          = .21765E-3
MEAN_MOTION_DOT = .3084E-4
MEAN_MOTION_DDOT = 0

CCSDS_OMM_VERS = 2.0
CREATION_DATE  = 
ORIGINATOR     = 

OBJECT_NAME    = COSMOS 2151
OBJECT_ID      = 1991-042A
CENTER_NAME    = EARTH
REF_FRAME      = TEME
TIME_SYSTEM    = UTC
MEAN_ELEMENT_THEORY = SGP/SGP4

EPOCH          = 2026-02-02T11:05:23.396640
MEAN_MOTION    = 14.99963327
ECCENTRICITY   = .001282
INCLINATION    = 82.4977
RA_OF_ASC_NODE = 117.6553
ARG_OF_PERICENTER = 172.2090
MEAN_ANOMALY   = 187.9336

EPHEMERIS_TYPE = 0
CLASSIFICATION_TYPE = U
NORAD_CAT_ID   = 21422
ELEMENT_SET_NO = 999
REV_AT_EPOCH   = 85791
BSTAR          = .14432E-3
MEAN_MOTION_DOT = .1822E-4
MEAN_MOTION_DDOT = 0

